OBJECT_NAME,OBJECT_ID,EPOCH,MEAN_MOTION,ECCENTRICITY,INCLINATION,RA_OF_ASC_NODE,ARG_OF_PERICENTER,MEAN_ANOMALY,EPHEMERIS_TYPE,CLASSIFICATION_TYPE,NORAD_CAT_ID,ELEMENT_SET_NO,REV_AT_EPOCH,BSTAR,MEAN_MOTION_DOT,MEAN_MOTION_DDOT
FENGYUN 3D,2017-072A,2026-07-14T05:01:51.776256,14.19744551,.0001602,99.0135,170.1225,16.3531,343.7695,0,U,43010,999,44882,.92081E-4,.149E-5,0
NOAA 20 (JPSS-1),2017-073A,2026-07-14T03:19:30.340704,14.19516330,.0001351,98.7773,134.3623,125.5062,234.6240,0,U,43013,999,44829,.28174E-4,.15E-6,0
GOES 17,2018-022A,2026-07-14T02:43:36.266016,1.00271204,.0000538,1.0039,85.2736,83.4541,74.6594,0,U,43226,999,3069,0,-.19E-5,0
SENTINEL-3B,2018-039A,2026-07-14T04:33:09.982368,14.26735982,.0001118,98.6237,262.3328,120.3569,239.7722,0,U,43437,999,42797,.16586E-4,-.4E-7,0
FENGYUN 2H,2018-050A,2026-07-14T01:48:58.194720,1.00267238,.0002322,3.0972,78.7513,133.9706,185.6130,0,U,43491,999,2970,0,-.135E-5,0
METOP-C,2018-087A,2026-07-14T04:00:39.930912,14.21518877,.0002216,98.6631,254.2757,95.1372,265.0058,0,U,43689,999,39866,.42198E-4,.49E-6,0
GEO-KOMPSAT-2A,2018-100A,2026-07-13T20:55:04.867968,1.00270353,.0001938,0.0274,110.5569,351.2545,271.9635,0,U,43823,999,2789,0,-.349E-5,0
METEOR-M2 2,2019-038A,2026-07-14T03:34:23.556000,14.24373615,.0000808,98.9152,182.8340,6.1083,354.0105,0,U,44387,999,36513,.1298E-3,.254E-5,0
ARKTIKA-M 1,2021-016A,2026-07-13T21:48:49.843872,2.00612083,.729691,63.2675,53.7444,270.0563,14.5017,0,U,47719,999,3932,0,-.308E-5,0
FENGYUN 3E,2021-062A,2026-07-14T04:34:19.972416,14.19907161,.0002304,98.7496,198.2979,41.2383,318.8967,0,U,49008,999,26041,.1009E-3,.17E-5,0
GOES 18,2022-021A,2026-07-14T05:05:48.545088,1.00270525,.0000394,0.0184,128.1604,61.7884,41.5771,0,U,51850,999,686,0,.9E-6,0
NOAA 21 (JPSS-2),2022-150A,2026-07-14T04:06:02.318688,14.19540922,.0002809,98.7060,133.5069,106.4125,253.7360,0,U,54234,999,19037,.17144E-4,-.7E-7,0
METEOSAT-12 (MTG-I1),2022-170C,2026-07-14T03:09:02.160000,1.00267426,.0003778,0.7239,19.5033,82.3169,237.1294,0,U,54743,999,1324,0,-.15E-6,0
TIANMU-1 03,2023-039A,2026-07-14T03:22:55.952832,15.48024801,.0002678,97.5234,10.1817,29.8656,330.2747,0,U,55973,999,18500,.18821E-3,.9749E-4,0
TIANMU-1 04,2023-039B,2026-07-14T04:25:31.315008,15.48649949,.0003132,97.5172,9.3828,16.8829,343.2525,0,U,55974,999,18502,.19016E-3,.10069E-3,0
TIANMU-1 05,2023-039C,2026-07-14T04:30:13.673664,15.47949553,.000306,97.5218,9.8351,48.0832,312.0679,0,U,55975,999,18499,.18894E-3,.9761E-4,0
TIANMU-1 06,2023-039D,2026-07-14T04:32:53.440224,15.48547157,.0003163,97.5225,10.5002,39.8057,320.3424,0,U,55976,999,18502,.19136E-3,.10097E-3,0
FENGYUN 3G,2023-055A,2026-07-14T04:34:52.844160,15.53757829,.0007081,49.9902,206.7586,51.2454,308.9145,0,U,56232,999,18420,.22906E-3,.14547E-3,0
METEOR-M2 3,2023-091A,2026-07-14T05:16:21.618624,14.24048872,.0005148,98.6069,249.6429,92.4683,267.7086,0,U,57166,999,15836,.15816E-4,-.7E-7,0
TIANMU-1 07,2023-101A,2026-07-14T04:15:04.789728,15.30108661,.0003812,97.2580,245.2284,66.9185,293.2458,0,U,57399,999,16577,.12831E-3,.3665E-4,0
TIANMU-1 08,2023-101B,2026-07-14T03:26:56.418720,15.30112042,.0004707,97.2568,244.9624,49.2682,310.8967,0,U,57400,999,16576,.13125E-3,.3751E-4,0
TIANMU-1 09,2023-101C,2026-07-14T04:36:19.565568,15.30153345,.0004402,97.2526,244.4115,67.1430,293.0275,0,U,57401,999,16577,.13451E-3,.3851E-4,0
TIANMU-1 10,2023-101D,2026-07-14T03:50:25.916352,15.30126918,.0005738,97.2606,245.4584,57.1902,302.9891,0,U,57402,999,16576,.14035E-3,.4019E-4,0
FENGYUN 3F,2023-111A,2026-07-14T04:10:14.331936,14.19943328,.0001296,98.6826,264.6782,76.6771,283.4550,0,U,57490,999,15269,.2662E-4,.13E-6,0
ARKTIKA-M 2,2023-198A,2026-07-13T16:18:35.342208,2.00608438,.6910233,63.2184,151.4001,267.3448,18.7378,0,U,58584,999,1885,0,.137E-5,0
TIANMU-1 11,2023-205A,2026-07-14T04:20:04.754112,15.27257787,.000677,97.3440,216.3175,266.5180,93.5285,0,U,58645,999,14164,.11867E-3,.3097E-4,0
TIANMU-1 12,2023-205B,2026-07-14T05:14:31.857792,15.27089487,.0005739,97.3429,216.1021,238.9253,121.1423,0,U,58646,999,14163,.12314E-3,.32E-4,0
TIANMU-1 13,2023-205C,2026-07-14T04:28:19.330176,15.27081866,.0005701,97.3457,216.3501,216.4230,143.6621,0,U,58647,999,14162,.12285E-3,.3191E-4,0
TIANMU-1 14,2023-205D,2026-07-14T05:40:14.732832,15.27126213,.000634,97.3393,215.5599,224.1364,135.9369,0,U,58648,999,14163,.12396E-3,.3225E-4,0
TIANMU-1 19,2023-208A,2026-07-14T04:49:43.481280,15.31966388,.000449,97.4527,311.6489,202.0871,158.0178,0,U,58660,999,14146,.16053E-3,.4876E-4,0
TIANMU-1 20,2023-208B,2026-07-14T05:13:58.829664,15.33155443,.0006238,97.4469,312.3293,215.9488,144.1335,0,U,58661,999,14156,.15253E-3,.4807E-4,0
