FENGYUN 3D              
1 43010U 17072A   26195.20962704  .00000149  00000+0  92081-4 0  9995
2 43010  99.0135 170.1225 0001602  16.3531 343.7695 14.19744551448827
NOAA 20 (JPSS-1)        
1 43013U 17073A   26195.13854561  .00000015  00000+0  28174-4 0  9996
2 43013  98.7773 134.3623 0001351 125.5062 234.6240 14.19516330448298
GOES 17                 
1 43226U 18022A   26195.11361419 -.00000190  00000+0  00000+0 0  9998
2 43226   1.0039  85.2736 0000538  83.4541  74.6594  1.00271204 30694
SENTINEL-3B             
1 43437U 18039A   26195.18969887 -.00000004  00000+0  16586-4 0  9995
2 43437  98.6237 262.3328 0001118 120.3569 239.7722 14.26735982427979
FENGYUN 2H              
1 43491U 18050A   26195.07567355 -.00000135  00000+0  00000+0 0  9994
2 43491   3.0972  78.7513 0002322 133.9706 185.6130  1.00267238 29704
METOP-C                 
1 43689U 18087A   26195.16712883  .00000049  00000+0  42198-4 0  9993
2 43689  98.6631 254.2757 0002216  95.1372 265.0058 14.21518877398667
GEO-KOMPSAT-2A          
1 43823U 18100A   26194.87158412 -.00000349  00000+0  00000+0 0  9993
2 43823   0.0274 110.5569 0001938 351.2545 271.9635  1.00270353 27898
METEOR-M2 2             
1 44387U 19038A   26195.14888375  .00000254  00000+0  12980-3 0  9997
2 44387  98.9152 182.8340 0000808   6.1083 354.0105 14.24373615365134
ARKTIKA-M 1             
1 47719U 21016A   26194.90891023 -.00000308  00000+0  00000+0 0  9992
2 47719  63.2675  53.7444 7296910 270.0563  14.5017  2.00612083 39320
FENGYUN 3E              
1 49008U 21062A   26195.19050894  .00000170  00000+0  10090-3 0  9991
2 49008  98.7496 198.2979 0002304  41.2383 318.8967 14.19907161260415
GOES 18                 
1 51850U 22021A   26195.21236742  .00000090  00000+0  00000+0 0  9993
2 51850   0.0184 128.1604 0000394  61.7884  41.5771  1.00270525  6863
NOAA 21 (JPSS-2)        
1 54234U 22150A   26195.17086017 -.00000007  00000+0  17144-4 0  9999
2 54234  98.7060 133.5069 0002809 106.4125 253.7360 14.19540922190378
METEOSAT-12 (MTG-I1)    
1 54743U 22170C   26195.13127500 -.00000015  00000+0  00000+0 0  9992
2 54743   0.7239  19.5033 0003778  82.3169 237.1294  1.00267426 13247
TIANMU-1 03             
1 55973U 23039A   26195.14092538  .00009749  00000+0  18821-3 0  9992
2 55973  97.5234  10.1817 0002678  29.8656 330.2747 15.48024801185001
TIANMU-1 04             
1 55974U 23039B   26195.18439022  .00010069  00000+0  19016-3 0  9994
2 55974  97.5172   9.3828 0003132  16.8829 343.2525 15.48649949185025
TIANMU-1 05             
1 55975U 23039C   26195.18765826  .00009761  00000+0  18894-3 0  9999
2 55975  97.5218   9.8351 0003060  48.0832 312.0679 15.47949553184996
TIANMU-1 06             
1 55976U 23039D   26195.18950741  .00010097  00000+0  19136-3 0  9996
2 55976  97.5225  10.5002 0003163  39.8057 320.3424 15.48547157185028
FENGYUN 3G              
1 56232U 23055A   26195.19088940  .00014547  00000+0  22906-3 0  9997
2 56232  49.9902 206.7586 0007081  51.2454 308.9145 15.53757829184201
METEOR-M2 3             
1 57166U 23091A   26195.21969466 -.00000007  00000+0  15816-4 0  9998
2 57166  98.6069 249.6429 0005148  92.4683 267.7086 14.24048872158360
TIANMU-1 07             
1 57399U 23101A   26195.17713877  .00003665  00000+0  12831-3 0  9991
2 57399  97.2580 245.2284 0003812  66.9185 293.2458 15.30108661165772
TIANMU-1 08             
1 57400U 23101B   26195.14370855  .00003751  00000+0  13125-3 0  9999
2 57400  97.2568 244.9624 0004707  49.2682 310.8967 15.30112042165763
TIANMU-1 09             
1 57401U 23101C   26195.19189312  .00003851  00000+0  13451-3 0  9994
2 57401  97.2526 244.4115 0004402  67.1430 293.0275 15.30153345165776
TIANMU-1 10             
1 57402U 23101D   26195.16002218  .00004019  00000+0  14035-3 0  9997
2 57402  97.2606 245.4584 0005738  57.1902 302.9891 15.30126918165762
FENGYUN 3F              
1 57490U 23111A   26195.17377699  .00000013  00000+0  26620-4 0  9998
2 57490  98.6826 264.6782 0001296  76.6771 283.4550 14.19943328152697
ARKTIKA-M 2             
1 58584U 23198A   26194.67957572  .00000137  00000+0  00000+0 0  9992
2 58584  63.2184 151.4001 6910233 267.3448  18.7378  2.00608438 18853
TIANMU-1 11             
1 58645U 23205A   26195.18061058  .00003097  00000+0  11867-3 0  9996
2 58645  97.3440 216.3175 0006770 266.5180  93.5285 15.27257787141649
TIANMU-1 12             
1 58646U 23205B   26195.21842428  .00003200  00000+0  12314-3 0  9993
2 58646  97.3429 216.1021 0005739 238.9253 121.1423 15.27089487141634
TIANMU-1 13             
1 58647U 23205C   26195.18633484  .00003191  00000+0  12285-3 0  9996
2 58647  97.3457 216.3501 0005701 216.4230 143.6621 15.27081866141627
TIANMU-1 14             
1 58648U 23205D   26195.23628163  .00003225  00000+0  12396-3 0  9992
2 58648  97.3393 215.5599 0006340 224.1364 135.9369 15.27126213141639
TIANMU-1 19             
1 58660U 23208A   26195.20119770  .00004876  00000+0  16053-3 0  9992
2 58660  97.4527 311.6489 0004490 202.0871 158.0178 15.31966388141466
TIANMU-1 20             
1 58661U 23208B   26195.21804201  .00004807  00000+0  15253-3 0  9999
2 58661  97.4469 312.3293 0006238 215.9488 144.1335 15.33155443141568
